{
    "links": {
        "self": "http://www.neowsapp.com/rest/v1/neo/3556971?api_key=iIulBulltgU6a56xZRHN4H3l9WmuAYTsLGpBGhQ2"
    },
    "id": "3556971",
    "neo_reference_id": "3556971",
    "name": "(2011 CY6)",
    "designation": "2011 CY6",
    "nasa_jpl_url": "http://ssd.jpl.nasa.gov/sbdb.cgi?sstr=3556971",
    "absolute_magnitude_h": 21.4,
    "estimated_diameter": {
        "kilometers": {
            "estimated_diameter_min": 0.1394938229,
            "estimated_diameter_max": 0.3119176705
        },
        "meters": {
            "estimated_diameter_min": 139.4938229344,
            "estimated_diameter_max": 311.9176705226
        },
        "miles": {
            "estimated_diameter_min": 0.0866774163,
            "estimated_diameter_max": 0.1938165949
        },
        "feet": {
            "estimated_diameter_min": 457.6569140361,
            "estimated_diameter_max": 1023.3519701574
        }
    },
    "is_potentially_hazardous_asteroid": false,
    "close_approach_data": [
        {
            "close_approach_date": "1986-02-12",
            "close_approach_date_full": "1986-Feb-12 22:05",
            "epoch_date_close_approach": 508629900000,
            "relative_velocity": {
                "kilometers_per_second": "3.2181977312",
                "kilometers_per_hour": "11585.5118322357",
                "miles_per_hour": "7198.7865048689"
            },
            "miss_distance": {
                "astronomical": "1.5753427829",
                "lunar": "612.8083425481",
                "kilometers": "235667924.841712423",
                "miles": "146437258.1107525174"
            },
            "orbiting_body": "Juptr"
        },
        {
            "close_approach_date": "1988-03-20",
            "close_approach_date_full": "1988-Mar-20 22:45",
            "epoch_date_close_approach": 574901100000,
            "relative_velocity": {
                "kilometers_per_second": "4.4696980956",
                "kilometers_per_hour": "16090.9131441406",
                "miles_per_hour": "9998.2676700356"
            },
            "miss_distance": {
                "astronomical": "0.4226703588",
                "lunar": "164.4187695732",
                "kilometers": "63230585.388615756",
                "miles": "39289663.8745631928"
            },
            "orbiting_body": "Earth"
        },
        {
            "close_approach_date": "2011-03-06",
            "close_approach_date_full": "2011-Mar-06 22:03",
            "epoch_date_close_approach": 1299448980000,
            "relative_velocity": {
                "kilometers_per_second": "4.8764583487",
                "kilometers_per_hour": "17555.2500553683",
                "miles_per_hour": "10908.1496802371"
            },
            "miss_distance": {
                "astronomical": "0.2397781963",
                "lunar": "93.2737183607",
                "kilometers": "35870307.438921881",
                "miles": "22288775.4982927178"
            },
            "orbiting_body": "Earth"
        },
        {
            "close_approach_date": "2053-03-10",
            "close_approach_date_full": "2053-Mar-10 17:10",
            "epoch_date_close_approach": 2625239400000,
            "relative_velocity": {
                "kilometers_per_second": "5.4247405545",
                "kilometers_per_hour": "19529.0659961486",
                "miles_per_hour": "12134.6021463291"
            },
            "miss_distance": {
                "astronomical": "0.3134503936",
                "lunar": "121.9322031104",
                "kilometers": "46891511.233221632",
                "miles": "29137033.9781052416"
            },
            "orbiting_body": "Earth"
        }
    ],
    "orbital_data": {
        "orbit_id": "18",
        "orbit_determination_date": "2020-07-04 08:51:39",
        "first_observation_date": "2011-02-04",
        "last_observation_date": "2011-04-02",
        "data_arc_in_days": 57,
        "observations_used": 67,
        "orbit_uncertainty": "6",
        "minimum_orbit_intersection": ".233367",
        "jupiter_tisserand_invariant": "3.308",
        "epoch_osculation": "2459000.5",
        "eccentricity": ".4985201395764267",
        "semi_major_axis": "2.442990059024972",
        "inclination": "7.213597088257383",
        "ascending_node_longitude": "346.2490646358427",
        "orbital_period": "1394.700563914193",
        "perihelion_distance": "1.22511031381602",
        "perihelion_argument": "176.1899109073752",
        "aphelion_distance": "3.660869804233923",
        "perihelion_time": "2458413.344911976487",
        "mean_anomaly": "151.5564251979963",
        "mean_motion": ".2581199214472737",
        "equinox": "J2000",
        "orbit_class": {
            "orbit_class_type": "AMO",
            "orbit_class_description": "Near-Earth asteroid orbits similar to that of 1221 Amor",
            "orbit_class_range": "1.017 AU < q (perihelion) < 1.3 AU"
        }
    },
    "is_sentry_object": false
}